NORAD_CAT_ID,OBJECT_NAME,OBJECT_TYPE,EPOCH,MEAN_MOTION,ECCENTRICITY,INCLINATION,RA_OF_ASC_NODE,ARG_OF_PERICENTER,MEAN_ANOMALY,BSTAR,MEAN_MOTION_DOT,MEAN_MOTION_DDOT,TLE_LINE0,TLE_LINE1,TLE_LINE2,SEMIMAJOR_AXIS,PERIOD,APOGEE,PERIGEE,DECAYED
52623.0,STARLINK-3986,PAYLOAD,2022-12-06 01:24:25,15.08848761,0.0003164,53.2148,209.5898,40.0787,320.0438,0.00011949,1.614e-05,0.0,0 STARLINK-3986,1 52623U 22052AB  22340.05862399  .00001614  00000-0  11949-3 0  9991,2 52623  53.2148 209.5898 0003164  40.0787 320.0438 15.08848761 31770,6917.854,95.437,541.9069999999998,537.53,0.0
52623.0,STARLINK-3986,PAYLOAD,2022-12-06 17:18:16,15.08836059,0.0003176,53.2148,206.6167,41.8922,318.2312,-3.0506e-05,-7.74e-06,0.0,0 STARLINK-3986,1 52623U 22052AB  22340.72102986 -.00000774  00000-0 -30506-4 0  9993,2 52623  53.2148 206.6167 0003176  41.8922 318.2312 15.08836059 31878,6917.892,95.438,541.955,537.56,0.0
52623.0,STARLINK-3986,PAYLOAD,2022-12-07 01:15:13,15.08828937,0.0003168,53.2154,205.1295,45.1195,315.0054,-0.00013617,-2.455e-05,0.0,0 STARLINK-3986,1 52623U 22052AB  22341.05224092 -.00002455  00000-0 -13617-3 0  9994,2 52623  53.2154 205.1295 0003168  45.1195 315.0054 15.08828937 31921,6917.9140000000025,95.438,541.971,537.5880000000002,0.0
52623.0,STARLINK-3986,PAYLOAD,2022-12-07 17:09:04,15.08831566,0.0003056,53.2154,202.1555,38.7486,321.3725,-2.3802e-05,-6.67e-06,0.0,0 STARLINK-3986,1 52623U 22052AB  22341.71463951 -.00000667  00000-0 -23802-4 0  9997,2 52623  53.2154 202.1555 0003056  38.7486 321.3725 15.08831566 32023,6917.906,95.438,541.885,537.6569999999998,0.0
52623.0,STARLINK-3986,PAYLOAD,2022-12-08 01:06:00,15.08840361,0.0003099,53.2154,200.6689,40.6494,319.4729,5.8055e-05,6.35e-06,0.0,0 STARLINK-3986,1 52623U 22052AB  22342.04583350  .00000635  00000-0  58055-4 0  9991,2 52623  53.2154 200.6689 0003099  40.6494 319.4729 15.08840361 32072,6917.879,95.438,541.888,537.6,0.0
52623.0,STARLINK-3986,PAYLOAD,2022-12-08 07:27:32,15.08844272,0.0003056,53.2155,199.4792,41.1053,319.0169,7.594600000000001e-05,9.2e-06,0.0,0 STARLINK-3986,1 52623U 22052AB  22342.31079075  .00000920  00000-0  75946-4 0  9990,2 52623  53.2155 199.4792 0003056  41.1053 319.0169 15.08844272 31734,6917.8669999999975,95.437,541.846,537.618,0.0
52623.0,STARLINK-3986,PAYLOAD,2022-12-08 16:59:51,15.08839095,0.000305,53.2154,197.6952,40.6085,319.5134,0.0002441,3.599e-05,0.0,0 STARLINK-3986,1 52623U 22052AB  22342.70823018  .00003599  00000-0  24410-3 0  9991,2 52623  53.2154 197.6952 0003050  40.6085 319.5134 15.08839095 31794,6917.8830000000025,95.438,541.8580000000002,537.638,0.0
52623.0,STARLINK-3986,PAYLOAD,2022-12-09 00:56:46,15.08843514,0.0003083,53.2154,196.2082,45.8348,314.2898,0.0003058999999999,4.584e-05,0.0,0 STARLINK-3986,1 52623U 22052AB  22343.03942659  .00004584  00000-0  30590-3 0  9992,2 52623  53.2154 196.2082 0003083  45.8348 314.2898 15.08843514 31844,6917.87,95.437,541.867,537.602,0.0
52623.0,STARLINK-3986,PAYLOAD,2022-12-09 20:01:25,15.088270800000002,0.000249,53.2165,192.6413,46.5908,313.5291,1.611e-05,-3.2e-07,0.0,0 STARLINK-3986,1 52623U 22052AB  22343.83432736 -.00000032  00000-0  16110-4 0  9998,2 52623  53.2165 192.6413 0002490  46.5908 313.5291 15.08827080 32340,6917.92,95.438,541.507,538.062,0.0
52623.0,STARLINK-3986,PAYLOAD,2022-12-10 13:30:40,15.08826569,0.0002956,53.215,189.3698,34.7447,325.3738,-5.5157e-05,-1.166e-05,0.0,0 STARLINK-3986,1 52623U 22052AB  22344.56296802 -.00001166  00000-0 -55157-4 0  9995,2 52623  53.2150 189.3698 0002956  34.7447 325.3738 15.08826569 32074,6917.920999999999,95.438,541.831,537.742,0.0
52623.0,STARLINK-3986,PAYLOAD,2022-12-10 19:52:12,15.08838757,0.0003208,53.2158,188.1804,41.7831,318.3406,-1.5275e-05,-5.32e-06,0.0,0 STARLINK-3986,1 52623U 22052AB  22344.82792823 -.00000532  00000-0 -15275-4 0  9991,2 52623  53.2158 188.1804 0003208  41.7831 318.3406 15.08838757 32115,6917.884,95.438,541.9680000000002,537.53,0.0
52623.0,STARLINK-3986,PAYLOAD,2022-12-11 02:13:45,15.08839235,0.0003099,53.2143,186.9906,40.5843,319.538,0.00010749,1.423e-05,0.0,0 STARLINK-3986,1 52623U 22052AB  22345.09288819  .00001423  00000-0  10749-3 0  9994,2 52623  53.2143 186.9906 0003099  40.5843 319.5380 15.08839235 32538,6917.8830000000025,95.438,541.8919999999998,537.604,0.0
52623.0,STARLINK-3986,PAYLOAD,2022-12-11 13:21:27,15.08842873,0.0003074,53.2143,184.9086,39.4537,320.6678,0.00015596,2.195e-05,0.0,0 STARLINK-3986,1 52623U 22052AB  22345.55656876  .00002195  00000-0  15596-3 0  9999,2 52623  53.2143 184.9086 0003074  39.4537 320.6678 15.08842873 32226,6917.871999999999,95.437,541.863,537.61,0.0
52623.0,STARLINK-3986,PAYLOAD,2022-12-11 19:43:00,15.08849953,0.0003045,53.2139,183.7194,39.3903,320.731,0.0006087,9.415e-05,0.0,0 STARLINK-3986,1 52623U 22052AB  22345.82153142  .00009415  00000-0  60870-3 0  9994,2 52623  53.2139 183.7194 0003045  39.3903 320.7310 15.08849953 32266,6917.85,95.437,541.821,537.6080000000002,0.0
52623.0,STARLINK-3986,PAYLOAD,2022-12-11 22:53:46,15.08852392,0.0003044,53.2135,183.1244,39.9835,320.1381,0.00060872,9.416e-05,0.0,0 STARLINK-3986,1 52623U 22052AB  22345.95401040  .00009416  00000-0  60872-3 0  9994,2 52623  53.2135 183.1244 0003044  39.9835 320.1381 15.08852392 32286,6917.843000000003,95.437,541.813,537.602,0.0
52623.0,STARLINK-3986,PAYLOAD,2022-12-12 22:44:33,15.0884816,0.0003356,53.2144,178.6636,42.2675,317.8575,0.00021838,3.19e-05,0.0,0 STARLINK-3986,1 52623U 22052AB  22346.94760764  .00003190  00000-0  21838-3 0  9997,2 52623  53.2144 178.6636 0003356  42.2675 317.8575 15.08848160 32810,6917.855,95.437,542.0419999999998,537.399,0.0
52623.0,STARLINK-3986,PAYLOAD,2022-12-13 13:03:01,15.08844802,0.0003166,53.2143,175.9874,43.5822,316.5420000000001,6.940100000000001e-05,8.16e-06,0.0,0 STARLINK-3986,1 52623U 22052AB  22347.54376630  .00000816  00000-0  69401-4 0  9990,2 52623  53.2143 175.9874 0003166  43.5822 316.5420 15.08844802 32522,6917.866,95.437,541.9209999999998,537.5409999999998,0.0
52623.0,STARLINK-3986,PAYLOAD,2022-12-13 19:24:33,15.08847491,0.0003168,53.2148,174.7986,46.0131,314.1122,0.0001007,1.315e-05,0.0,0 STARLINK-3986,1 52623U 22052AB  22347.80872449  .00001315  00000-0  10070-3 0  9990,2 52623  53.2148 174.7986 0003168  46.0131 314.1122 15.08847491 32565,6917.857,95.437,541.914,537.531,0.0
52623.0,STARLINK-3986,PAYLOAD,2022-12-14 12:53:48,15.08836159,0.0002945,53.2126,171.5256,38.1942,321.9258,9.0315e-05,1.149e-05,0.0,0 STARLINK-3986,1 52623U 22052AB  22348.53736870  .00001149  00000-0  90315-4 0  9994,2 52623  53.2126 171.5256 0002945  38.1942 321.9258 15.08836159 32677,6917.892,95.438,541.794,537.72,0.0
52623.0,STARLINK-3986,PAYLOAD,2022-12-14 19:15:21,15.08832738,0.0002967,53.2126,170.3359,38.5913,321.529,2.3375e-05,8.3e-07,0.0,0 STARLINK-3986,1 52623U 22052AB  22348.80233124  .00000083  00000-0  23375-4 0  9996,2 52623  53.2126 170.3359 0002967  38.5913 321.5290 15.08832738 33092,6917.903,95.438,541.82,537.715,0.0
52623.0,STARLINK-3986,PAYLOAD,2022-12-15 12:44:35,15.08837521,0.0003069,53.2147,167.0663,45.1063,315.0178,3.2323e-05,2.26e-06,0.0,0 STARLINK-3986,1 52623U 22052AB  22349.53097121  .00000226  00000-0  32323-4 0  9994,2 52623  53.2147 167.0663 0003069  45.1063 315.0178 15.08837521 32828,6917.888000000001,95.438,541.876,537.63,0.0
52623.0,STARLINK-3986,PAYLOAD,2022-12-15 20:41:31,15.08838847,0.0003114,53.2145,165.5792,45.1635,314.961,5.2401e-05,5.45e-06,0.0,0 STARLINK-3986,1 52623U 22052AB  22349.86217116  .00000545  00000-0  52401-4 0  9991,2 52623  53.2145 165.5792 0003114  45.1635 314.9610 15.08838847 32874,6917.884,95.438,541.903,537.595,0.0
52623.0,STARLINK-3986,PAYLOAD,2022-12-16 12:35:22,15.08841196,0.0003129,53.2145,162.6052,46.5758,313.5494,0.00019117,2.755e-05,0.0,0 STARLINK-3986,1 52623U 22052AB  22350.52457064  .00002755  00000-0  19117-3 0  9995,2 52623  53.2145 162.6052 0003129  46.5758 313.5494 15.08841196 32975,6917.877,95.437,541.906,537.577,0.0
52623.0,STARLINK-3986,PAYLOAD,2022-12-16 20:32:18,15.08847097,0.0003154,53.2145,161.1184,47.0524,313.0733,0.00024752,3.654e-05,0.0,0 STARLINK-3986,1 52623U 22052AB  22350.85576780  .00003654  00000-0  24752-3 0  9998,2 52623  53.2145 161.1184 0003154  47.0524 313.0733 15.08847097 33024,6917.859,95.437,541.906,537.5419999999998,0.0
52623.0,STARLINK-3986,PAYLOAD,2022-12-17 10:50:46,15.0885473,0.0003101,53.2141,158.4419,47.4832,312.6422,0.00025708,3.807e-05,0.0,0 STARLINK-3986,1 52623U 22052AB  22351.45192171  .00003807  00000-0  25708-3 0  9995,2 52623  53.2141 158.4419 0003101  47.4832 312.6422 15.08854730 33491,6917.835,95.437,541.846,537.555,0.0
52623.0,STARLINK-3986,PAYLOAD,2022-12-17 12:26:10,15.08834948,0.0003234,53.2143,158.1446,50.9713,309.1566,-8.6079e-05,-1.658e-05,0.0,0 STARLINK-3986,1 52623U 22052AB  22351.51817141 -.00001658  00000-0 -86079-4 0  9996,2 52623  53.2143 158.1446 0003234  50.9713 309.1566 15.08834948 33123,6917.896,95.438,541.998,537.524,0.0
52623.0,STARLINK-3986,PAYLOAD,2022-12-17 17:12:20,15.08819575,0.000354,53.2142,157.2524,39.4789,320.6461,-0.00032061,-5.386e-05,0.0,0 STARLINK-3986,1 52623U 22052AB  22351.71690037 -.00005386  00000-0 -32061-3 0  9994,2 52623  53.2142 157.2524 0003540  39.4789 320.6461 15.08819575 33530,6917.943,95.439,542.257,537.359,0.0
52623.0,STARLINK-3986,PAYLOAD,2022-12-17 20:23:06,15.08815543,0.0003248,53.2143,156.6578,47.5799,312.5468,-0.00038434,-6.397e-05,0.0,0 STARLINK-3986,1 52623U 22052AB  22351.84938286 -.00006397  00000-0 -38434-3 0  9992,2 52623  53.2143 156.6578 0003248  47.5799 312.5468 15.08815543 33177,6917.955,95.439,542.067,537.573,0.0
52623.0,STARLINK-3986,PAYLOAD,2022-12-18 10:41:34,15.08837971,0.0003092,53.2142,153.9811,47.8311,312.2944,0.00010083,1.316e-05,0.0,0 STARLINK-3986,1 52623U 22052AB  22352.44553693  .00001316  00000-0  10083-3 0  9998,2 52623  53.2142 153.9811 0003092  47.8311 312.2944 15.08837971 33643,6917.887,95.438,541.891,537.613,0.0
